{
    "links": {
        "self": "http://www.neowsapp.com/rest/v1/neo/3879162?api_key=iIulBulltgU6a56xZRHN4H3l9WmuAYTsLGpBGhQ2"
    },
    "id": "3879162",
    "neo_reference_id": "3879162",
    "name": "(2019 TV6)",
    "designation": "2019 TV6",
    "nasa_jpl_url": "http://ssd.jpl.nasa.gov/sbdb.cgi?sstr=3879162",
    "absolute_magnitude_h": 25.6,
    "estimated_diameter": {
        "kilometers": {
            "estimated_diameter_min": 0.0201629919,
            "estimated_diameter_max": 0.0450858206
        },
        "meters": {
            "estimated_diameter_min": 20.1629919443,
            "estimated_diameter_max": 45.0858206172
        },
        "miles": {
            "estimated_diameter_min": 0.0125286985,
            "estimated_diameter_max": 0.0280150214
        },
        "feet": {
            "estimated_diameter_min": 66.1515504905,
            "estimated_diameter_max": 147.9193637137
        }
    },
    "is_potentially_hazardous_asteroid": false,
    "close_approach_data": [
        {
            "close_approach_date": "2019-10-18",
            "close_approach_date_full": "2019-Oct-18 14:09",
            "epoch_date_close_approach": 1571407740000,
            "relative_velocity": {
                "kilometers_per_second": "11.4570622739",
                "kilometers_per_hour": "41245.4241861034",
                "miles_per_hour": "25628.3026005263"
            },
            "miss_distance": {
                "astronomical": "0.0630938967",
                "lunar": "24.5435258163",
                "kilometers": "9438712.556320029",
                "miles": "5864944.0214292402"
            },
            "orbiting_body": "Earth"
        }
    ],
    "orbital_data": {
        "orbit_id": "1",
        "orbit_determination_date": "2019-10-11 06:42:05",
        "first_observation_date": "2019-09-27",
        "last_observation_date": "2019-10-11",
        "data_arc_in_days": 14,
        "observations_used": 28,
        "orbit_uncertainty": "8",
        "minimum_orbit_intersection": ".0114433",
        "jupiter_tisserand_invariant": "3.159",
        "epoch_osculation": "2458762.5",
        "eccentricity": ".6192262931487362",
        "semi_major_axis": "2.516882031103",
        "inclination": "1.96854938919015",
        "ascending_node_longitude": "18.11895977477162",
        "orbital_period": "1458.453936978973",
        "perihelion_distance": ".9583625006904269",
        "perihelion_argument": "44.50736372354278",
        "aphelion_distance": "4.075401561515572",
        "perihelion_time": "2458802.547279914330",
        "mean_anomaly": "350.1148603986616",
        "mean_motion": ".2468367295477979",
        "equinox": "J2000",
        "orbit_class": {
            "orbit_class_type": "APO",
            "orbit_class_description": "Near-Earth asteroid orbits which cross the Earth’s orbit similar to that of 1862 Apollo",
            "orbit_class_range": "a (semi-major axis) > 1.0 AU; q (perihelion) < 1.017 AU"
        }
    },
    "is_sentry_object": false
}